{
  "links" : {
    "next" : "https://api.nasa.gov/neo/rest/v1/feed?start_date=2012-10-16&end_date=2012-10-16&detailed=true&api_key=t0TVs3DtDT2H8Oy2Zy8m2eVrNsAVKAexjcZXUckd",
    "prev" : "https://api.nasa.gov/neo/rest/v1/feed?start_date=2012-10-14&end_date=2012-10-14&detailed=true&api_key=t0TVs3DtDT2H8Oy2Zy8m2eVrNsAVKAexjcZXUckd",
    "self" : "https://api.nasa.gov/neo/rest/v1/feed?start_date=2012-10-15&end_date=2012-10-15&detailed=true&api_key=t0TVs3DtDT2H8Oy2Zy8m2eVrNsAVKAexjcZXUckd"
  },
  "element_count" : 7,
  "near_earth_objects" : {
    "2012-10-15" : [ {
      "links" : {
        "self" : "https://api.nasa.gov/neo/rest/v1/neo/3667139?api_key=t0TVs3DtDT2H8Oy2Zy8m2eVrNsAVKAexjcZXUckd"
      },
      "neo_reference_id" : "3667139",
      "name" : "(2014 GJ45)",
      "nasa_jpl_url" : "http://ssd.jpl.nasa.gov/sbdb.cgi?sstr=3667139",
      "absolute_magnitude_h" : 23.6,
      "estimated_diameter" : {
        "kilometers" : {
          "estimated_diameter_min" : 0.0506471459,
          "estimated_diameter_max" : 0.1132504611
        },
        "meters" : {
          "estimated_diameter_min" : 50.6471458835,
          "estimated_diameter_max" : 113.2504610618
        },
        "miles" : {
          "estimated_diameter_min" : 0.0314706677,
          "estimated_diameter_max" : 0.0703705522
        },
        "feet" : {
          "estimated_diameter_min" : 166.1651821003,
          "estimated_diameter_max" : 371.5566426699
        }
      },
      "is_potentially_hazardous_asteroid" : false,
      "close_approach_data" : [ {
        "close_approach_date" : "2012-10-15",
        "epoch_date_close_approach" : 1350284400000,
        "relative_velocity" : {
          "kilometers_per_second" : "16.3328562449",
          "kilometers_per_hour" : "58798.2824817872",
          "miles_per_hour" : "36534.9661343083"
        },
        "miss_distance" : {
          "astronomical" : "0.3123768",
          "lunar" : "121.5145721436",
          "kilometers" : "46730904",
          "miles" : "29037238"
        },
        "orbiting_body" : "Earth"
      } ],
      "orbital_data" : {
        "orbit_id" : "13",
        "orbit_determination_date" : "2017-04-06 08:41:38",
        "orbit_uncertainty" : "7",
        "minimum_orbit_intersection" : ".0530552",
        "jupiter_tisserand_invariant" : "6.295",
        "epoch_osculation" : "2458000.5",
        "eccentricity" : ".327887181555253",
        "semi_major_axis" : ".9379131387295686",
        "inclination" : "21.32525707005096",
        "ascending_node_longitude" : "22.04468853521512",
        "orbital_period" : "331.7740057949129",
        "perihelion_distance" : ".6303834431278893",
        "perihelion_argument" : "312.35368150",
        "aphelion_distance" : "1.245442834331248",
        "perihelion_time" : "2457847.943804725172",
        "mean_anomaly" : "165.5350610345502",
        "mean_motion" : "1.08507596650756",
        "equinox" : "J2000"
      }
    } ]
  }
}